{
    "links": {
        "self": "http://www.neowsapp.com/rest/v1/neo/3879716?api_key=iIulBulltgU6a56xZRHN4H3l9WmuAYTsLGpBGhQ2"
    },
    "id": "3879716",
    "neo_reference_id": "3879716",
    "name": "(2019 UC6)",
    "designation": "2019 UC6",
    "nasa_jpl_url": "http://ssd.jpl.nasa.gov/sbdb.cgi?sstr=3879716",
    "absolute_magnitude_h": 25.2,
    "estimated_diameter": {
        "kilometers": {
            "estimated_diameter_min": 0.0242412481,
            "estimated_diameter_max": 0.0542050786
        },
        "meters": {
            "estimated_diameter_min": 24.2412481101,
            "estimated_diameter_max": 54.2050786336
        },
        "miles": {
            "estimated_diameter_min": 0.0150628086,
            "estimated_diameter_max": 0.0336814639
        },
        "feet": {
            "estimated_diameter_min": 79.5316564495,
            "estimated_diameter_max": 177.8381901842
        }
    },
    "is_potentially_hazardous_asteroid": false,
    "close_approach_data": [
        {
            "close_approach_date": "2019-10-22",
            "close_approach_date_full": "2019-Oct-22 10:15",
            "epoch_date_close_approach": 1571739300000,
            "relative_velocity": {
                "kilometers_per_second": "18.6708587895",
                "kilometers_per_hour": "67215.0916421129",
                "miles_per_hour": "41764.8440261784"
            },
            "miss_distance": {
                "astronomical": "0.0572280737",
                "lunar": "22.2617206693",
                "kilometers": "8561197.929723019",
                "miles": "5319681.7166109022"
            },
            "orbiting_body": "Earth"
        }
    ],
    "orbital_data": {
        "orbit_id": "3",
        "orbit_determination_date": "2019-11-10 04:59:58",
        "first_observation_date": "2019-10-23",
        "last_observation_date": "2019-10-27",
        "data_arc_in_days": 4,
        "observations_used": 22,
        "orbit_uncertainty": "8",
        "minimum_orbit_intersection": ".0530358",
        "jupiter_tisserand_invariant": "3.890",
        "epoch_osculation": "2458781.5",
        "eccentricity": ".4597977219477585",
        "semi_major_axis": "1.734072372957516",
        "inclination": "29.89329695605572",
        "ascending_node_longitude": "211.9865012030386",
        "orbital_period": "834.0637678072069",
        "perihelion_distance": ".9367498461791062",
        "perihelion_argument": "130.0133223497257",
        "aphelion_distance": "2.531394899735925",
        "perihelion_time": "2458740.139785279866",
        "mean_anomaly": "17.85196513018892",
        "mean_motion": ".4316216743792349",
        "equinox": "J2000",
        "orbit_class": {
            "orbit_class_type": "APO",
            "orbit_class_description": "Near-Earth asteroid orbits which cross the Earth’s orbit similar to that of 1862 Apollo",
            "orbit_class_range": "a (semi-major axis) > 1.0 AU; q (perihelion) < 1.017 AU"
        }
    },
    "is_sentry_object": false
}